[{"OBJECT_NAME":"ONEWEB-0700","OBJECT_ID":"2024-188N","EPOCH":"2026-06-20T01:00:54.961056","MEAN_MOTION":13.10413715,"ECCENTRICITY":0.0001966,"INCLINATION":87.8849,"RA_OF_ASC_NODE":35.607,"ARG_OF_PERICENTER":103.3062,"MEAN_ANOMALY":256.8284,"EPHEMERIS_TYPE":0,"CLASSIFICATION_TYPE":"U","NORAD_CAT_ID":61606,"ELEMENT_SET_NO":999,"REV_AT_EPOCH":8367,"BSTAR":0.0017602000000000002,"MEAN_MOTION_DOT":6.28e-06,"MEAN_MOTION_DDOT":0.0},{"OBJECT_NAME":"ONEWEB-0701","OBJECT_ID":"2024-188P","EPOCH":"2026-06-19T14:25:18.339744","MEAN_MOTION":13.10345022,"ECCENTRICITY":0.0001709,"INCLINATION":87.8837,"RA_OF_ASC_NODE":35.7849,"ARG_OF_PERICENTER":110.9427,"MEAN_ANOMALY":249.1884,"EPHEMERIS_TYPE":0,"CLASSIFICATION_TYPE":"U","NORAD_CAT_ID":61607,"ELEMENT_SET_NO":999,"REV_AT_EPOCH":8362,"BSTAR":0.0007361900000000001,"MEAN_MOTION_DOT":2.7e-06,"MEAN_MOTION_DDOT":0.0},{"OBJECT_NAME":"ONEWEB-0702","OBJECT_ID":"2024-188Q","EPOCH":"2026-06-19T14:43:36.280704","MEAN_MOTION":13.11417196,"ECCENTRICITY":0.000221,"INCLINATION":87.8902,"RA_OF_ASC_NODE":20.5041,"ARG_OF_PERICENTER":114.0455,"MEAN_ANOMALY":246.0904,"EPHEMERIS_TYPE":0,"CLASSIFICATION_TYPE":"U","NORAD_CAT_ID":61608,"ELEMENT_SET_NO":999,"REV_AT_EPOCH":8480,"BSTAR":-0.0020642,"MEAN_MOTION_DOT":-7.19e-06,"MEAN_MOTION_DDOT":0.0},{"OBJECT_NAME":"ONEWEB-0704","OBJECT_ID":"2024-188R","EPOCH":"2026-06-20T01:08:09.051072","MEAN_MOTION":13.10421529,"ECCENTRICITY":0.0001713,"INCLINATION":87.8838,"RA_OF_ASC_NODE":35.6857,"ARG_OF_PERICENTER":106.8634,"MEAN_ANOMALY":253.2681,"EPHEMERIS_TYPE":0,"CLASSIFICATION_TYPE":"U","NORAD_CAT_ID":61609,"ELEMENT_SET_NO":999,"REV_AT_EPOCH":8366,"BSTAR":-0.014019000000000002,"MEAN_MOTION_DOT":-4.882e-05,"MEAN_MOTION_DDOT":0.0},{"OBJECT_NAME":"ONEWEB-0705","OBJECT_ID":"2024-188S","EPOCH":"2026-06-19T14:15:38.970720","MEAN_MOTION":13.10376427,"ECCENTRICITY":0.0002726,"INCLINATION":87.8843,"RA_OF_ASC_NODE":35.7813,"ARG_OF_PERICENTER":95.3646,"MEAN_ANOMALY":264.7793,"EPHEMERIS_TYPE":0,"CLASSIFICATION_TYPE":"U","NORAD_CAT_ID":61610,"ELEMENT_SET_NO":999,"REV_AT_EPOCH":7577,"BSTAR":-0.0012962000000000002,"MEAN_MOTION_DOT":-4.4e-06,"MEAN_MOTION_DDOT":0.0},{"OBJECT_NAME":"ONEWEB-0706","OBJECT_ID":"2024-188T","EPOCH":"2026-06-19T15:43:54.681600","MEAN_MOTION":13.10437834,"ECCENTRICITY":0.000211,"INCLINATION":87.8837,"RA_OF_ASC_NODE":35.7737,"ARG_OF_PERICENTER":99.3922,"MEAN_ANOMALY":260.7444,"EPHEMERIS_TYPE":0,"CLASSIFICATION_TYPE":"U","NORAD_CAT_ID":61611,"ELEMENT_SET_NO":999,"REV_AT_EPOCH":8370,"BSTAR":-0.0022196,"MEAN_MOTION_DOT":-7.63e-06,"MEAN_MOTION_DDOT":0.0},{"OBJECT_NAME":"ONEWEB-0707","OBJECT_ID":"2024-188U","EPOCH":"2026-06-20T01:03:20.178720","MEAN_MOTION":13.10407845,"ECCENTRICITY":0.0002145,"INCLINATION":87.884,"RA_OF_ASC_NODE":35.6911,"ARG_OF_PERICENTER":100.5166,"MEAN_ANOMALY":259.6204,"EPHEMERIS_TYPE":0,"CLASSIFICATION_TYPE":"U","NORAD_CAT_ID":61612,"ELEMENT_SET_NO":999,"REV_AT_EPOCH":8369,"BSTAR":0.00078389,"MEAN_MOTION_DOT":2.86e-06,"MEAN_MOTION_DDOT":0.0},{"OBJECT_NAME":"ONEWEB-0708","OBJECT_ID":"2024-188V","EPOCH":"2026-06-19T21:49:59.141856","MEAN_MOTION":13.10329595,"ECCENTRICITY":0.0002375,"INCLINATION":87.8832,"RA_OF_ASC_NODE":35.7356,"ARG_OF_PERICENTER":81.2827,"MEAN_ANOMALY":278.857,"EPHEMERIS_TYPE":0,"CLASSIFICATION_TYPE":"U","NORAD_CAT_ID":61613,"ELEMENT_SET_NO":999,"REV_AT_EPOCH":8365,"BSTAR":0.0010743999999999999,"MEAN_MOTION_DOT":3.87e-06,"MEAN_MOTION_DDOT":0.0}]