ONEWEB-0700             
1 61606U 24188N   26171.04230279  .00000628  00000+0  17602-2 0  9999
2 61606  87.8849  35.6070 0001966 103.3062 256.8284 13.10413715 83678
ONEWEB-0701             
1 61607U 24188P   26170.60090671  .00000270  00000+0  73619-3 0  9995
2 61607  87.8837  35.7849 0001709 110.9427 249.1884 13.10345022 83626
ONEWEB-0702             
1 61608U 24188Q   26170.61361436 -.00000719  00000+0 -20642-2 0  9994
2 61608  87.8902  20.5041 0002210 114.0455 246.0904 13.11417196 84803
ONEWEB-0704             
1 61609U 24188R   26171.04732698 -.00004882  00000+0 -14019-1 0  9990
2 61609  87.8838  35.6857 0001713 106.8634 253.2681 13.10421529 83668
ONEWEB-0705             
1 61610U 24188S   26170.59420105 -.00000440  00000+0 -12962-2 0  9990
2 61610  87.8843  35.7813 0002726  95.3646 264.7793 13.10376427 75779
ONEWEB-0706             
1 61611U 24188T   26170.65549400 -.00000763  00000+0 -22196-2 0  9996
2 61611  87.8837  35.7737 0002110  99.3922 260.7444 13.10437834 83707
ONEWEB-0707             
1 61612U 24188U   26171.04398355  .00000286  00000+0  78389-3 0  9996
2 61612  87.8840  35.6911 0002145 100.5166 259.6204 13.10407845 83696
ONEWEB-0708             
1 61613U 24188V   26170.90971229  .00000387  00000+0  10744-2 0  9990
2 61613  87.8832  35.7356 0002375  81.2827 278.8570 13.10329595 83656
